LANDSAT 8               
1 39084U 13008A   20128.81457228  .00000029  00000-0  16496-4 0  9997
2 39084  98.1836 199.0160 0001371  77.4416 282.6933 14.57123295384780
